ASTRA 2E                
1 39285U 13056A   26180.30895590  .00000162  00000+0  00000+0 0  9995
2 39285   0.0592 335.5351 0002550 130.8874 310.6711  1.00272135 46531
FM-6                    
1 39360U 13058A   26180.49410471 -.00000005  00000+0  00000+0 0  9999
2 39360   0.0185  47.4169 0001756 132.9990 158.7264  1.00271384 46199
RADUGA-1M 3             
1 39375U 13062A   26180.31025593  .00000159  00000+0  00000+0 0  9997
2 39375   5.9876  72.2009 0002068 286.8710  64.9910  1.00272390 46229
SES-8                   
1 39460U 13071A   26180.32214240 -.00000258  00000+0  00000+0 0  9993
2 39460   0.0261 290.1418 0003068 167.7491  30.4882  1.00271132 44550
INMARSAT 5-F1           
1 39476U 13073A   26179.74537877  .00000039  00000+0  00000+0 0  9996
2 39476   0.0190  21.2561 0000543 349.5691 236.9784  1.00270794 45690
TKSAT-1 (TUPAC KATARI)  
1 39481U 13075A   26180.49991141 -.00000184  00000+0  00000+0 0  9998
2 39481   0.0445 155.8821 0002854 294.9642 279.5167  1.00271806 45725
EXPRESS-AM5             
1 39487U 13077A   26178.98864326 -.00000268  00000+0  00000+0 0  9994
2 39487   0.0159 297.1082 0000481 115.8377 359.0878  1.00272649 46463
GSAT-14                 
1 39498U 14001A   26180.46055384 -.00000066  00000+0  00000+0 0  9992
2 39498   0.0636  92.6286 0000752 125.7621 298.9396  1.00272333 45502
THAICOM 6               
1 39500U 14002A   26180.53273646 -.00000110  00000+0  00000+0 0  9998
2 39500   0.0560 113.6009 0004765   0.9963  73.3243  1.00271299 45584
TDRS 12                 
1 39504U 14004A   26180.50901147 -.00000261  00000+0  00000+0 0  9992
2 39504   3.9888  19.2912 0003312 203.2652 197.1965  1.00279042 44407
ABS-2                   
1 39508U 14006A   26180.53204312 -.00000075  00000+0  00000+0 0  9994
2 39508   0.0144  52.4038 0003982  31.1066 100.5522  1.00272125 45405
ATHENA-FIDUS            
1 39509U 14006B   26180.52467644  .00000165  00000+0  00000+0 0  9992
2 39509   0.0209  87.8280 0001687  17.6929  38.7608  1.00271289 45212
TURKSAT 4A              
1 39522U 14007A   26179.95517221  .00000157  00000+0  00000+0 0  9991
2 39522   0.0489 299.2292 0000493 347.8227  15.8479  1.00273523 45082
EXPRESS-AT1             
1 39612U 14010A   26180.52978978  .00000021  00000+0  00000+0 0  9990
2 39612   0.2894  85.5977 0004493  44.0412  42.5211  1.00307304 44946
EXPRESS-AT2             
1 39613U 14010B   26179.88664424  .00000000  00000+0  00000+0 0  9993
2 39613   0.0244  17.2655 0000322 323.1898 311.7122  1.00271039 44616
AMAZONAS 4A             
1 39616U 14011A   26180.50251144 -.00000241  00000+0  00000+0 0  9997
2 39616   0.0646 160.7885 0004461 317.4987 266.1956  1.00270482 44830
ASTRA 5B                
1 39617U 14011B   26180.30791590  .00000148  00000+0  00000+0 0  9995
2 39617   0.0497 330.9530 0002189 113.3545 327.4143  1.00273689 44786
IRNSS-1B                
1 39635U 14017A   26179.73864156  .00000150  00000+0  00000+0 0  9998
2 39635  28.9045 240.2040 0022832 192.5986 165.0167  1.00270538 44904
LUCH-5V                 
1 39727U 14023A   26179.98775090 -.00000262  00000+0  00000+0 0  9997
2 39727   5.1615  69.6311 0002553  52.1822 245.6113  1.00271326 44472
KAZSAT-3                
1 39728U 14023B   26180.52874977  .00000072  00000+0  00000+0 0  9992
2 39728   0.0118   2.8144 0000059  36.6106 127.0300  1.00271104 42584
EUTELSAT 3B             
1 39773U 14030A   26180.37520921  .00000031  00000+0  00000+0 0  9995
2 39773   0.0599 359.2425 0004280  96.8936 319.4827  1.00271348 44186
ASIASAT 8 (AMOS-7)      
1 40107U 14046A   26180.53803912 -.00000321  00000+0  00000+0 0  9990
2 40107   0.0435 271.7573 0002012 191.2365 113.5641  1.00264899102272
ASIASAT 6               
1 40141U 14052A   26180.04489285 -.00000351  00000+0  00000+0 0  9997
2 40141   0.0401 269.1238 0000917 196.0703 308.0111  1.00272833 43198
OPTUS 10                
1 40146U 14054A   26180.47674416 -.00000136  00000+0  00000+0 0  9994
2 40146   0.0533  62.1310 0002158  35.2388 147.8295  1.00270907 43151
MEASAT-3B               
1 40147U 14054B   26180.39275926 -.00000230  00000+0  00000+0 0  9994
2 40147   0.0497  53.4087 0002852  18.8889  78.0563  1.00269411 43037
HIMAWARI-8              
1 40267U 14060A   26180.54503284 -.00000264  00000+0  00000+0 0  9999
2 40267   0.0177 356.4441 0001134 101.5196 156.5425  1.00273273 42880
IRNSS-1C                
1 40269U 14061A   26179.82070670 -.00000156  00000+0  00000+0 0  9999
2 40269   6.5464  88.7100 0022105   4.4529 202.1283  1.00274876 42803
INTELSAT 30 (IS-30)     
1 40271U 14062A   26179.68417422 -.00000139  00000+0  00000+0 0  9998
2 40271   0.0209  45.2858 0001725 346.1200  36.6237  1.00270773  6909
ARSAT 1                 
1 40272U 14062B   26180.50294477 -.00000249  00000+0  00000+0 0  9997
2 40272   0.0133 345.6796 0002134 107.6852 293.4793  1.00271431 42746
GSAT-16                 
1 40332U 14078A   26179.95777222  .00000096  00000+0  00000+0 0  9991
2 40332   0.0546 266.1428 0008084 178.9848 231.8026  1.00274665 42226
DIRECTV 14              
1 40333U 14078B   26180.42621058 -.00000114  00000+0  00000+0 0  9993
2 40333   0.0142  37.8435 0000195  37.7853 256.0721  1.00270895 42168
