OBJECT_NAME,OBJECT_ID,EPOCH,MEAN_MOTION,ECCENTRICITY,INCLINATION,RA_OF_ASC_NODE,ARG_OF_PERICENTER,MEAN_ANOMALY,EPHEMERIS_TYPE,CLASSIFICATION_TYPE,NORAD_CAT_ID,ELEMENT_SET_NO,REV_AT_EPOCH,BSTAR,MEAN_MOTION_DOT,MEAN_MOTION_DDOT
ASTRA 2E,2013-056A,2026-06-29T07:24:53.789760,1.00272135,.000255,0.0592,335.5351,130.8874,310.6711,0,U,39285,999,4653,0,.162E-5,0
FM-6,2013-058A,2026-06-29T11:51:30.646944,1.00271384,.0001756,0.0185,47.4169,132.9990,158.7264,0,U,39360,999,4619,0,-.5E-7,0
RADUGA-1M 3,2013-062A,2026-06-29T07:26:46.112352,1.00272390,.0002068,5.9876,72.2009,286.8710,64.9910,0,U,39375,999,4622,0,.159E-5,0
SES-8,2013-071A,2026-06-29T07:43:53.103360,1.00271132,.0003068,0.0261,290.1418,167.7491,30.4882,0,U,39460,999,4455,0,-.258E-5,0
INMARSAT 5-F1,2013-073A,2026-06-28T17:53:20.725728,1.00270794,.00005433,0.0190,21.2561,349.5691,236.9784,0,U,39476,999,4569,0,.39E-6,0
TKSAT-1 (TUPAC KATARI),2013-075A,2026-06-29T11:59:52.345824,1.00271806,.0002854,0.0445,155.8821,294.9642,279.5167,0,U,39481,999,4572,0,-.184E-5,0
EXPRESS-AM5,2013-077A,2026-06-27T23:43:38.777664,1.00272649,.00004819,0.0159,297.1082,115.8377,359.0878,0,U,39487,999,4646,0,-.268E-5,0
GSAT-14,2014-001A,2026-06-29T11:03:11.851776,1.00272333,.0000752,0.0636,92.6286,125.7621,298.9396,0,U,39498,999,4550,0,-.66E-6,0
THAICOM 6,2014-002A,2026-06-29T12:47:08.430144,1.00271299,.0004765,0.0560,113.6009,0.9963,73.3243,0,U,39500,999,4558,0,-.11E-5,0
TDRS 12,2014-004A,2026-06-29T12:12:58.591008,1.00279042,.0003312,3.9888,19.2912,203.2652,197.1965,0,U,39504,999,4440,0,-.261E-5,0
ABS-2,2014-006A,2026-06-29T12:46:08.525568,1.00272125,.0003982,0.0144,52.4038,31.1066,100.5522,0,U,39508,999,4540,0,-.75E-6,0
ATHENA-FIDUS,2014-006B,2026-06-29T12:35:32.044416,1.00271289,.0001687,0.0209,87.8280,17.6929,38.7608,0,U,39509,999,4521,0,.165E-5,0
TURKSAT 4A,2014-007A,2026-06-28T22:55:26.878944,1.00273523,.00004934,0.0489,299.2292,347.8227,15.8479,0,U,39522,999,4508,0,.157E-5,0
EXPRESS-AT1,2014-010A,2026-06-29T12:42:53.836992,1.00307304,.0004493,0.2894,85.5977,44.0412,42.5211,0,U,39612,999,4494,0,.21E-6,0
EXPRESS-AT2,2014-010B,2026-06-28T21:16:46.062336,1.00271039,.00003223,0.0244,17.2655,323.1898,311.7122,0,U,39613,999,4461,0,0,0
AMAZONAS 4A,2014-011A,2026-06-29T12:03:36.988416,1.00270482,.0004461,0.0646,160.7885,317.4987,266.1956,0,U,39616,999,4483,0,-.241E-5,0
ASTRA 5B,2014-011B,2026-06-29T07:23:23.933760,1.00273689,.0002189,0.0497,330.9530,113.3545,327.4143,0,U,39617,999,4478,0,.148E-5,0
IRNSS-1B,2014-017A,2026-06-28T17:43:38.630784,1.00270538,.00228324,28.9045,240.2040,192.5986,165.0167,0,U,39635,999,4490,0,.15E-5,0
LUCH-5V,2014-023A,2026-06-28T23:42:21.677760,1.00271326,.00025532,5.1615,69.6311,52.1822,245.6113,0,U,39727,999,4447,0,-.262E-5,0
KAZSAT-3,2014-023B,2026-06-29T12:41:23.980128,1.00271104,.0000059,0.0118,2.8144,36.6106,127.0300,0,U,39728,999,4258,0,.72E-6,0
EUTELSAT 3B,2014-030A,2026-06-29T09:00:18.075744,1.00271348,.000428,0.0599,359.2425,96.8936,319.4827,0,U,39773,999,4418,0,.31E-6,0
ASIASAT 8 (AMOS-7),2014-046A,2026-06-29T12:54:46.579968,1.00264899,.0002012,0.0435,271.7573,191.2365,113.5641,0,U,40107,999,10227,0,-.321E-5,0
ASIASAT 6,2014-052A,2026-06-29T01:04:38.742240,1.00272833,.0000917,0.0401,269.1238,196.0703,308.0111,0,U,40141,999,4319,0,-.351E-5,0
OPTUS 10,2014-054A,2026-06-29T11:26:30.695424,1.00270907,.0002158,0.0533,62.1310,35.2388,147.8295,0,U,40146,999,4315,0,-.136E-5,0
MEASAT-3B,2014-054B,2026-06-29T09:25:34.400064,1.00269411,.0002852,0.0497,53.4087,18.8889,78.0563,0,U,40147,999,4303,0,-.23E-5,0
HIMAWARI-8,2014-060A,2026-06-29T13:04:50.837376,1.00273273,.0001134,0.0177,356.4441,101.5196,156.5425,0,U,40267,999,4288,0,-.264E-5,0
IRNSS-1C,2014-061A,2026-06-28T19:41:49.058880,1.00274876,.00221059,6.5464,88.7100,4.4529,202.1283,0,U,40269,999,4280,0,-.156E-5,0
INTELSAT 30 (IS-30),2014-062A,2026-06-28T16:25:12.652608,1.00270773,.0001725,0.0209,45.2858,346.1200,36.6237,0,U,40271,999,690,0,-.139E-5,0
ARSAT 1,2014-062B,2026-06-29T12:04:14.428128,1.00271431,.0002134,0.0133,345.6796,107.6852,293.4793,0,U,40272,999,4274,0,-.249E-5,0
GSAT-16,2014-078A,2026-06-28T22:59:11.519808,1.00274665,.00080845,0.0546,266.1428,178.9848,231.8026,0,U,40332,999,4222,0,.96E-6,0
DIRECTV 14,2014-078B,2026-06-29T10:13:44.594112,1.00270895,.0000195,0.0142,37.8435,37.7853,256.0721,0,U,40333,999,4216,0,-.114E-5,0
